{
  "type": "FeatureCollection",
  "features": [
    {
      "type": "Feature",
      "geometry": {
        "type": "Point",
        "coordinates": [
          103.72500000000001,
          1.268
        ]
      },
      "properties": {
        "asset_id": "DEMO-001",
        "name": "Demo Mixed use Asset 1",
        "severity": 0,
        "status": "consistent",
        "predicted_core": "Residential",
        "confidence": 0.86,
        "entropy": 0.28,
        "change_probability": 0.18
      }
    },
    {
      "type": "Feature",
      "geometry": {
        "type": "Point",
        "coordinates": [
          103.75,
          1.286
        ]
      },
      "properties": {
        "asset_id": "DEMO-002",
        "name": "Demo Office Asset 2",
        "severity": 0,
        "status": "consistent",
        "predicted_core": "Commercial",
        "confidence": 0.86,
        "entropy": 0.28,
        "change_probability": 0.18
      }
    },
    {
      "type": "Feature",
      "geometry": {
        "type": "Point",
        "coordinates": [
          103.775,
          1.304
        ]
      },
      "properties": {
        "asset_id": "DEMO-003",
        "name": "Demo Retail Asset 3",
        "severity": 0,
        "status": "consistent",
        "predicted_core": "Commercial",
        "confidence": 0.86,
        "entropy": 0.28,
        "change_probability": 0.18
      }
    },
    {
      "type": "Feature",
      "geometry": {
        "type": "Point",
        "coordinates": [
          103.8,
          1.322
        ]
      },
      "properties": {
        "asset_id": "DEMO-004",
        "name": "Demo Logistics Asset 4",
        "severity": 0,
        "status": "consistent",
        "predicted_core": "Industrial",
        "confidence": 0.86,
        "entropy": 0.28,
        "change_probability": 0.18
      }
    },
    {
      "type": "Feature",
      "geometry": {
        "type": "Point",
        "coordinates": [
          103.825,
          1.34
        ]
      },
      "properties": {
        "asset_id": "DEMO-005",
        "name": "Demo Residential Asset 5",
        "severity": 0,
        "status": "consistent",
        "predicted_core": "Residential",
        "confidence": 0.86,
        "entropy": 0.28,
        "change_probability": 0.18
      }
    },
    {
      "type": "Feature",
      "geometry": {
        "type": "Point",
        "coordinates": [
          103.85000000000001,
          1.358
        ]
      },
      "properties": {
        "asset_id": "DEMO-006",
        "name": "Demo Hospitality Asset 6",
        "severity": 0,
        "status": "consistent",
        "predicted_core": "Hotel",
        "confidence": 0.86,
        "entropy": 0.28,
        "change_probability": 0.18
      }
    },
    {
      "type": "Feature",
      "geometry": {
        "type": "Point",
        "coordinates": [
          103.875,
          1.376
        ]
      },
      "properties": {
        "asset_id": "DEMO-007",
        "name": "Demo Office Asset 7",
        "severity": 0,
        "status": "consistent",
        "predicted_core": "Commercial",
        "confidence": 0.86,
        "entropy": 0.28,
        "change_probability": 0.18
      }
    },
    {
      "type": "Feature",
      "geometry": {
        "type": "Point",
        "coordinates": [
          103.9,
          1.394
        ]
      },
      "properties": {
        "asset_id": "DEMO-008",
        "name": "Demo Retail Asset 8",
        "severity": 0,
        "status": "consistent",
        "predicted_core": "Commercial",
        "confidence": 0.86,
        "entropy": 0.28,
        "change_probability": 0.18
      }
    },
    {
      "type": "Feature",
      "geometry": {
        "type": "Point",
        "coordinates": [
          103.925,
          1.412
        ]
      },
      "properties": {
        "asset_id": "DEMO-009",
        "name": "Demo Residential Asset 9",
        "severity": 0,
        "status": "consistent",
        "predicted_core": "Residential",
        "confidence": 0.86,
        "entropy": 0.28,
        "change_probability": 0.18
      }
    },
    {
      "type": "Feature",
      "geometry": {
        "type": "Point",
        "coordinates": [
          103.95,
          1.43
        ]
      },
      "properties": {
        "asset_id": "DEMO-010",
        "name": "Demo Industrial Asset 10",
        "severity": 0,
        "status": "consistent",
        "predicted_core": "Industrial",
        "confidence": 0.86,
        "entropy": 0.28,
        "change_probability": 0.18
      }
    }
  ]
}